OBJECT_NAME,OBJECT_ID,EPOCH,MEAN_MOTION,ECCENTRICITY,INCLINATION,RA_OF_ASC_NODE,ARG_OF_PERICENTER,MEAN_ANOMALY,EPHEMERIS_TYPE,CLASSIFICATION_TYPE,NORAD_CAT_ID,ELEMENT_SET_NO,REV_AT_EPOCH,BSTAR,MEAN_MOTION_DOT,MEAN_MOTION_DDOT
SWARM A,2013-067B,2026-07-08T21:30:35.927424,15.51373096,.0003296,87.3310,48.1709,95.6660,264.4977,0,U,39452,999,70961,.11987028E-3,.7091E-4,0
SWARM C,2013-067C,2026-07-08T21:30:27.601056,15.51371991,.00032922,87.3310,46.7518,95.9247,264.2390,0,U,39453,999,70957,.11740138E-3,.6946E-4,0
BRITE-CA1 (TORONTO),2014-033L,2026-07-08T21:58:43.239072,14.72714360,.00779874,97.9764,318.4465,206.4501,153.2717,0,U,40020,999,64541,.11398979E-3,.709E-5,0
OCO 2,2014-035A,2026-07-08T22:09:59.501376,14.57129037,.00014748,98.2020,130.8862,81.8941,278.2424,0,U,40059,999,63921,.65966564E-4,.252E-5,0
BRITE-PL2 (HEWELIUSZ),2014-049B,2026-07-08T20:43:08.528160,14.94673311,.00147936,97.9115,302.0330,42.6299,317.6066,0,U,40119,999,64468,.15840808E-3,.1661E-4,0
MMS 1,2015-011A,2026-07-09T00:00:02.000160,0.28343966,.8301024,72.3858,348.5257,167.9437,3.4591,0,U,40482,999,134,0,-.743E-5,0
MMS 2,2015-011B,2026-07-09T00:00:02.000160,0.28343377,.83038471,72.3896,348.5248,167.9469,3.4475,0,U,40483,999,134,0,-.744E-5,0
MMS 3,2015-011C,2026-07-09T00:00:02.000160,0.28343278,.8302217,72.3894,348.5366,167.9546,3.4214,0,U,40484,999,131,0,-.743E-5,0
MMS 4,2015-011D,2026-07-09T00:00:02.000160,0.28343876,.83021497,72.3852,348.5199,167.9641,3.4159,0,U,40485,999,137,0,-.743E-5,0
ASTROSAT,2015-052A,2026-07-08T21:18:26.644032,14.82545593,.00081533,5.9980,359.1413,340.7474,19.2346,0,U,40930,999,58305,.8264341E-4,.1351E-4,0
DAMPE,2015-078A,2026-07-09T00:01:18.777792,15.30842855,.00122629,97.4566,195.5757,7.5435,352.5988,0,U,41173,999,58788,.32970758E-4,.906E-5,0
PISAT,2016-059B,2026-07-08T19:18:30.777696,14.69022006,.0030125,97.8186,189.3290,134.3845,225.9836,0,U,41784,999,52291,.11876115E-3,.654E-5,0
HXMT (HUIYAN),2017-034A,2026-07-08T23:19:16.266720,15.18651146,.00327268,43.0146,61.7239,282.8441,76.8752,0,U,42758,999,50097,.15975068E-3,.317E-4,0
FLYING LAPTOP,2017-042G,2026-07-08T23:33:26.748576,15.01286219,.00199065,97.4785,344.6903,52.1036,308.1985,0,U,42831,999,48972,.19485408E-3,.2458E-4,0
ZHANGHENG 1-01 (CSES-1),2018-015C,2026-07-08T23:33:06.879168,15.21106670,.00182575,97.6889,356.0782,187.0453,173.0528,0,U,43194,999,46795,.20628288E-3,.4534E-4,0
SALSAT,2020-068K,2026-07-08T22:11:41.845632,15.30112926,.00085482,97.8859,194.3174,216.5599,143.5058,0,U,46495,999,31868,.16857153E-3,.4831E-4,0
IXPE,2021-121A,2026-07-09T00:00:02.000160,15.10453066,.00073262,0.2280,152.4171,49.4655,36.7128,0,U,49954,999,585,.36413833E-3,.7096E-4,0
