SWARM A                 
1 39452U 13067B   26189.89624916  .00007091  00000+0  11987-3 0  9996
2 39452  87.3310  48.1709 0003296  95.6660 264.4977 15.51373096709610
SWARM C                 
1 39453U 13067C   26189.89615279  .00006946  00000+0  11740-3 0  9994
2 39453  87.3310  46.7518 0003292  95.9247 264.2390 15.51371991709577
BRITE-CA1 (TORONTO)     
1 40020U 14033L   26189.91577823  .00000709  00000+0  11399-3 0  9996
2 40020  97.9764 318.4465 0077987 206.4501 153.2717 14.72714360645418
OCO 2                   
1 40059U 14035A   26189.92360534  .00000252  00000+0  65967-4 0  9994
2 40059  98.2020 130.8862 0001474  81.8941 278.2424 14.57129037639215
BRITE-PL2 (HEWELIUSZ)   
1 40119U 14049B   26189.86329315  .00001661  00000+0  15841-3 0  9991
2 40119  97.9115 302.0330 0014793  42.6299 317.6066 14.94673311644682
MMS 1                   
1 40482U 15011A   26190.00002315 -.00000743  00000+0  00000+0 0  9998
2 40482  72.3858 348.5257 8301024 167.9437   3.4591  0.28343966  1343
MMS 2                   
1 40483U 15011B   26190.00002315 -.00000744  00000+0  00000+0 0  9990
2 40483  72.3896 348.5248 8303847 167.9469   3.4475  0.28343377  1343
MMS 3                   
1 40484U 15011C   26190.00002315 -.00000743  00000+0  00000+0 0  9990
2 40484  72.3894 348.5366 8302217 167.9546   3.4214  0.28343278  1317
MMS 4                   
1 40485U 15011D   26190.00002315 -.00000743  00000+0  00000+0 0  9991
2 40485  72.3852 348.5199 8302149 167.9641   3.4159  0.28343876  1374
ASTROSAT                
1 40930U 15052A   26189.88780838  .00001351  00000+0  82643-4 0  9991
2 40930   5.9980 359.1413 0008153 340.7474  19.2346 14.82545593583053
DAMPE                   
1 41173U 15078A   26190.00091178  .00000906  00000+0  32971-4 0  9991
2 41173  97.4566 195.5757 0012262   7.5435 352.5988 15.30842855587888
PISAT                   
1 41784U 16059B   26189.80452289  .00000654  00000+0  11876-3 0  9999
2 41784  97.8186 189.3290 0030125 134.3845 225.9836 14.69022006522910
HXMT (HUIYAN)           
1 42758U 17034A   26189.97171605  .00003170  00000+0  15975-3 0  9993
2 42758  43.0146  61.7239 0032726 282.8441  76.8752 15.18651146500977
FLYING LAPTOP           
1 42831U 17042G   26189.98155959  .00002458  00000+0  19485-3 0  9997
2 42831  97.4785 344.6903 0019906  52.1036 308.1985 15.01286219489720
ZHANGHENG 1-01 (CSES-1) 
1 43194U 18015C   26189.98132962  .00004534  00000+0  20628-3 0  9998
2 43194  97.6889 356.0782 0018257 187.0453 173.0528 15.21106670467958
SALSAT                  
1 46495U 20068K   26189.92478988  .00004831  00000+0  16857-3 0  9990
2 46495  97.8859 194.3174 0008548 216.5599 143.5058 15.30112926318689
IXPE                    
1 49954U 21121A   26190.00002315  .00007096  00000+0  36414-3 0  9999
2 49954   0.2280 152.4171 0007326  49.4655  36.7128 15.10453066  5853
